GALAXY 11 (G-11)        
1 26038U 99071A   24350.39255184  .00000086  00000+0  00000+0 0  9998
2 26038   5.3445  77.1606 0002733 240.4118 324.3755  0.99034814 91562
INTELSAT 9 (IS-9)       
1 26451U 00043A   24350.72741751 -.00000013  00000+0  00000+0 0  9996
2 26451   9.1828  54.1191 0003549 204.6529 154.2025  1.00271893 38638
INTELSAT 1R (IS-1R)     
1 26608U 00072A   24349.78193987  .00000046  00000+0  00000+0 0  9993
2 26608   6.7034  70.7625 0008507 208.5809 305.9771  0.98976044 35796
INTELSAT 10 (IS-10)     
1 26766U 01019A   24348.75086169 -.00000002  00000+0  00000+0 0  9992
2 26766   7.7555  64.8677 0004750 205.5351 148.9266  1.00272534 86401
INTELSAT 901 (IS-901)   
1 26824U 01024A   24350.16162329 -.00000193  00000+0  00000+0 0  9995
2 26824   0.0374  83.1675 0001439 228.9255 162.9022  1.00268173 86080
INTELSAT 902 (IS-902)   
1 26900U 01039A   24350.51449791 -.00000278  00000+0  00000+0 0  9990
2 26900   4.7246  78.4703 0005087 191.5206 309.7882  1.00271473 85268
INTELSAT 904 (IS-904)   
1 27380U 02007A   24351.05604789 -.00000212  00000+0  00000+0 0  9997
2 27380   5.5418  75.7242 0003487 200.6533 159.4909  1.00271517 83599
DIRECTV 5 (TEMPO 1)     
1 27426U 02023A   24350.00229809 -.00000050  00000+0  00000+0 0  9996
2 27426   3.4683  82.1901 0003535 183.2476  69.4237  1.00271451 82793
INTELSAT 905 (IS-905)   
1 27438U 02027A   24350.44812116 -.00000181  00000+0  00000+0 0  9995
2 27438   5.3668  76.3708 0002970 187.1344 317.9168  1.00270870 82461
GALAXY 3C (G-3C)        
1 27445U 02030A   24351.19495257 -.00000147  00000+0  00000+0 0  9995
2 27445   2.3290  84.9819 0002652  74.4912 261.1759  1.00271106 82459
INTELSAT 906 (IS-906)   
1 27513U 02041A   24350.68973145  .00000018  00000+0  00000+0 0  9999
2 27513   4.4027  79.6831 0006616 186.4654 131.1228  1.00272437 81524
GALAXY 23 (G-23)        
1 27854U 03034A   24350.71484139  .00000019  00000+0  00000+0 0  9995
2 27854   1.7765  86.6350 0002831 189.8688 304.8156  1.00272137 78245
GALAXY 13 (HORIZONS-1)  
1 27954U 03044A   24350.42313378  .00000141  00000+0  00000+0 0  9997
2 27954   0.0191  65.6254 0003150  99.1178 282.1552  1.00274559 77655
INTELSAT 10-02          
1 28358U 04022A   24350.31924378 -.00000002  00000+0  00000+0 0  9996
2 28358   0.0188  25.1057 0001123 280.3358 252.9969  1.00270512 75126
XM-3 (RHYTHM)           
1 28626U 05008A   24350.54598095 -.00000197  00000+0  00000+0 0  9992
2 28626   0.0152 294.3351 0005018 289.1688 332.5838  1.00269483 72562
DIRECTV 8               
1 28659U 05019A   24349.63793632  .00000012  00000+0  00000+0 0  9997
2 28659   0.0235  60.8882 0003212 202.2082 291.3120  1.00270848 71565
GALAXY 28 (G-28)        
1 28702U 05022A   24350.86410219 -.00000179  00000+0  00000+0 0  9999
2 28702   1.8816  85.7697 0006787 185.0936  36.2224  1.00270803 46489
GALAXY 14 (G-14)        
1 28790U 05030A   24350.67922034  .00000081  00000+0  00000+0 0  9998
2 28790   3.6056  81.5934 0001535 164.1920 143.2605  0.98940770 70793
SPACEWAY 2              
1 28903U 05046B   24350.84928182 -.00000237  00000+0  00000+0 0  9994
2 28903   4.0631  78.0330 0002338  89.9461 348.2250  0.99063244 45844
GALAXY 16 (G-16)        
1 29236U 06023A   24350.86210394 -.00000119  00000+0  00000+0 0  9990
2 29236   0.0431 121.7765 0002953 142.9758  31.5988  1.00270749 67474
DIRECTV 9S              
1 29494U 06043A   24350.86166955 -.00000106  00000+0  00000+0 0  9997
2 29494   1.0017  87.5895 0003290 178.8499  27.5553  1.00271057 45886
GALAXY 17 (G-17)        
1 31307U 07016B   24350.86488411 -.00000199  00000+0  00000+0 0  9990
2 31307   1.5788  86.9553 0007478 197.5916  26.8314  1.00271204 64309
DIRECTV 10              
1 31862U 07032A   24350.57544378 -.00000095  00000+0  00000+0 0  9992
2 31862   0.0230 169.8131 0000860  43.3962 335.8791  1.00271606 40099
INTELSAT 11 (IS-11)     
1 32253U 07044B   24350.87322464 -.00000262  00000+0  00000+0 0  9999
2 32253   2.1357  85.4888 0004604 193.8608  77.0123  1.00270725 62995
HORIZONS-2              
1 32388U 07063B   24351.07827135 -.00000247  00000+0  00000+0 0  9990
2 32388   1.1840  87.4607 0002684 195.5302 116.5907  1.00270466 62381
DIRECTV 11              
1 32729U 08013A   24350.50468039 -.00000117  00000+0  00000+0 0  9992
2 32729   0.0037  99.3462 0000350  97.7627 330.0420  1.00268059 61431
GALAXY 18 (G-18)        
1 32951U 08024A   24350.42852037  .00000034  00000+0  00000+0 0  9994
2 32951   0.0250   6.8383 0003554 268.2014 200.7817  1.00270775 60580
INTELSAT 25 (IS-25)     
1 33153U 08034A   24350.87548354 -.00000217  00000+0  00000+0 0  9997
2 33153   1.2904  87.1384 0003532 188.0742  93.4845  1.00271272 60198
GALAXY 19 (G-19)        
1 33376U 08045A   24350.50553247 -.00000131  00000+0  00000+0 0  9998
2 33376   0.0153  25.4169 0003066 242.9734 261.2534  1.00270630 59338
FM-5                    
1 35493U 09034A   24350.93612618 -.00000193  00000+0  00000+0 0  9992
2 35493   0.0153 322.7684 0001442 214.7422 158.4225  1.00270404 56488
INTELSAT 14 (IS-14)     
1 36097U 09064A   24351.17618865 -.00000267  00000+0  00000+0 0  9995
2 36097   0.0198  40.7672 0003067 236.1246 186.8447  1.00270299 55201
INTELSAT 15 (IS-15)     
1 36106U 09067A   24350.78834765 -.00000178  00000+0  00000+0 0  9995
2 36106   0.0012 356.0702 0002639 275.9173 181.8953  1.00271963 35730
DIRECTV 12              
1 36131U 09075A   24350.57544378 -.00000096  00000+0  00000+0 0  9996
2 36131   0.0168 179.5044 0000624  92.3497 277.3133  1.00275598 41050
INTELSAT 16 (IS-16)     
1 36397U 10006A   24351.12447297 -.00000238  00000+0  00000+0 0  9998
2 36397   0.0174  40.7646 0002378 222.9464 150.1608  1.00270429 54227
XM-5                    
1 37185U 10053A   24350.44639220 -.00000015  00000+0  00000+0 0  9992
2 37185   0.0171 356.2623 0000698 199.1385 294.7037  1.00273079 51941
INTELSAT 17 (IS-17)     
1 37238U 10065B   24350.72741708  .00000006  00000+0  00000+0 0  9999
2 37238   0.0174 295.6414 0002560 341.9908 135.1071  1.00270918 47732
INTELSAT 28 (IS-28)     
1 37392U 11016A   24351.08730080  .00000140  00000+0  00000+0 0  9997
2 37392   0.3858  90.2059 0004645 171.6895 241.1623  1.00125659 50026
INTELSAT 18 (IS-18)     
1 37834U 11056A   24351.06043392  .00000060  00000+0  00000+0 0  9994
2 37834   0.0013 359.3264 0001905 251.9047  35.7151  1.00270722 48348
INTELSAT 22 (IS-22)     
1 38098U 12011A   24350.80674156 -.00000051  00000+0  00000+0 0  9999
2 38098   0.0019 359.0272 0001851 267.7600 180.6985  1.00270458  1691
INTELSAT 19 (IS-19)     
1 38356U 12030A   24350.15532209 -.00000047  00000+0  00000+0 0  9992
2 38356   0.0119  15.1745 0003261 248.2717  42.7765  1.00270757 46004
INTELSAT 20 (IS-20)     
1 38740U 12043A   24350.80674156 -.00000017  00000+0  00000+0 0  9990
2 38740   0.0179  20.3657 0003030 170.3770 253.1184  1.00269519 45258
INTELSAT 21 (IS-21)     
1 38749U 12045A   24350.53521663 -.00000276  00000+0  00000+0 0  9992
2 38749   0.0019 357.1792 0002459 262.6972 319.4895  1.00271761 45026
INTELSAT 23 (IS-23)     
1 38867U 12057A   24351.06715962 -.00000278  00000+0  00000+0 0  9994
2 38867   0.0288 226.9846 0000849 119.5313  69.8971  1.00269948 44617
FM-6                    
1 39360U 13058A   24350.42991046 -.00000008  00000+0  00000+0 0  9994
2 39360   0.0038   1.4636 0000476 174.7057 307.0229  1.00271130 40846
INTELSAT 30 (IS-30)     
1 40271U 14062A   24350.43408073 -.00000143  00000+0  00000+0 0  9997
2 40271   0.0124  11.1495 0001090 340.7924 153.8632  1.00275132 37260
DIRECTV 14              
1 40333U 14078B   24350.50468039 -.00000117  00000+0  00000+0 0  9990
2 40333   0.0149 326.6097 0000294 265.0932 295.4033  1.00270388 36749
DIRECTV 15              
1 40663U 15026A   24350.93256406 -.00000095  00000+0  00000+0 0  9995
2 40663   0.0174  11.6896 0000548 196.7935 109.4482  1.00271100 35032
SKY MEXICO-1            
1 40664U 15026B   24350.69265925 -.00000226  00000+0  00000+0 0  9991
2 40664   0.0205 355.7991 0002789 281.4560 338.1706  1.00271138 34952
INTELSAT 34 (IS-34)     
1 40874U 15039A   24351.07236699 -.00000278  00000+0  00000+0 0  9994
2 40874   0.0169 349.0103 0000503 220.8887 205.8637  1.00270601 34122
INTELSAT 31 (IS-31)     
1 41581U 16035A   24350.23105205 -.00000142  00000+0  00000+0 0  9992
2 41581   0.0140  39.7439 0001886 144.2484 248.5005  1.00270879 31171
INTELSAT 36 (IS-36)     
1 41747U 16053A   24350.60936837 -.00000016  00000+0  00000+0 0  9990
2 41747   0.0112   2.3211 0001715 335.6519  34.6499  1.00267187 30442
INTELSAT 32E (IS-32E)   
1 41945U 17007B   24350.51571424 -.00000261  00000+0  00000+0 0  9999
2 41945   0.0169  14.7585 0000761 164.0480  48.3315  1.00269554 28723
INTELSAT 35E (IS-35E)   
1 42818U 17041A   24351.16368969 -.00000231  00000+0  00000+0 0  9994
2 42818   0.0141  50.5043 0002699 225.3203 193.9049  1.00269986 27310
INTELSAT 37E (IS-37E)   
1 42950U 17059A   24350.59216604 -.00000132  00000+0  00000+0 0  9994
2 42950   0.0166  18.7918 0003221 239.7027  21.4215  1.00270917 26568
AZERSPACE 2 (IS-38)     
1 43632U 18074A   24350.60485059  .00000144  00000+0  00000+0 0  9996
2 43632   0.0016   8.6922 0001896 275.0249  63.8878  1.00270017 22942
HORIZONS-3E             
1 43633U 18074B   24350.58231318 -.00000022  00000+0  00000+0 0  9997
2 43633   0.0477 189.8271 0001724  66.7296 206.8083  1.00270626 22842
AT&T T-16               
1 44333U 19034A   24350.93308535 -.00000108  00000+0  00000+0 0  9992
2 44333   0.0173  10.4293 0001088 123.5089 186.1876  1.00273272 20120
INTELSAT 39 (IS-39)     
1 44476U 19049B   24350.96549233  .00000041  00000+0  00000+0 0  9996
2 44476   0.0075 325.5893 0000474 214.5708 314.4627  1.00270317 19622
GALAXY 30 (G-30)        
1 46114U 20056C   24350.48521875  .00000045  00000+0  00000+0 0  9990
2 46114   0.0051  46.2374 0002442 217.1272 230.9553  1.00272583 15904
GALAXY 33 (G-33)        
1 54026U 22128A   24350.57775803  .00000087  00000+0  00000+0 0  9991
2 54026   0.0107 325.3734 0002131 299.4585 254.8702  1.00271371  8236
GALAXY 34 (G-34)        
1 54027U 22128B   24351.07051206  .00000066  00000+0  00000+0 0  9999
2 54027   0.0271 329.2554 0001491 299.2003  73.1954  1.00271188  8274
GALAXY 31 (G-31)        
1 54243U 22153A   24350.64400997  .00000022  00000+0  00000+0 0  9996
2 54243   0.0203  14.8996 0001741 256.1690 284.5509  1.00270733  1630
GALAXY 32 (G-32)        
1 54244U 22153B   24350.86366779 -.00000167  00000+0  00000+0 0  9991
2 54244   0.0122 352.8015 0002304 313.3874 358.7366  1.00272476  7642
GALAXY 35 (G-35)        
1 54741U 22170A   24350.93473608 -.00000155  00000+0  00000+0 0  9997
2 54741   0.0223  16.7872 0002446 251.3892  60.2932  1.00269726  7403
GALAXY 36 (G-36)        
1 54742U 22170B   24350.86410219 -.00000178  00000+0  00000+0 0  9994
2 54742   0.0230  75.8059 0000199 354.5892 236.6757  1.00271468  7415
GALAXY 37 (G-37)        
1 57493U 23112A   24350.92787253  .00000055  00000+0  00000+0 0  9992
2 57493   0.0133  17.6435 0002459 252.3985  22.0552  1.00271737  5028
